0 THOR ABLESTAR R/B
1 01428U 65048B   13282.12718227  .00000018  00000-0  14319-4 0  1133
2 01428 089.9768 319.9096 0055178 310.0933 074.7657 13.52406254382726
0 THOR ABLESTAR R/B
1 01428U 65048B   13284.13154111  .00000038  00000-0  43027-4 0  1143
2 01428 089.9763 319.9049 0055086 304.0935 113.4947 13.52406149382997
0 THOR ABLESTAR R/B
1 01428U 65048B   13286.52345947  .00000051  00000-0  63726-4 0  1151
2 01428 089.9756 319.8992 0055023 296.9056 239.1830 13.52406367383315
0 THOR ABLESTAR R/B
1 01428U 65048B   13288.65668833  .00000031  00000-0  33892-4 0  1169
2 01428 089.9751 319.8939 0055008 290.4931 185.3749 13.52406661383605
0 THOR ABLESTAR R/B
1 01428U 65048B   13291.16181380  .00000033  00000-0  35891-4 0  1170
2 01428 089.9748 319.8874 0054980 282.9502 142.2618 13.52407116383947
0 THOR ABLESTAR R/B
1 01428U 65048B   13293.47020602  .00000048  00000-0  58301-4 0  1183
2 01428 089.9749 319.8813 0055009 276.0118 221.2905 13.52407309384257
0 THOR ABLESTAR R/B
1 01428U 65048B   13295.69001461  .00000058  00000-0  73204-4 0  1192
2 01428 089.9749 319.8755 0055059 269.3302 229.0370 13.52407410384555
